#dP2019  2 20  0  0  0.00000000      96 __u+U ITR00 FIT  IAC
## 2041 259200.00000000   900.00000000 58534 0.0000000000000
+   91   C02C05C06C07C08C09C10C11C12C13C14C16E01E02E03E04E05
+        E07E08E09E11E12E13E14E15E18E19E21E24E25E26E27E30E31
+        E33E36G01G02G03G04G05G06G07G08G09G10G11G12G13G14G15
+        G16G17G18G19G20G21G22G23G24G25G26G27G28G29G30G31G32
+        R01R02R03R04R05R07R08R09R10R11R13R14R15R16R17R18R19
+        R20R21R22R23R24R26  0  0  0  0  0  0  0  0  0  0  0
++        12 12  9  9  9  8  8  8  8  9  8  9  6  5  6  6  5
++         6  6  6  5  5  6  5  6  0  5  6  6  5  6  6  6  6
++         5  6  4  4  4  4  4  4  4  4  4  4  4  4  4  4  4
++         4  4  3  3  4  4  4  4  4  4  4  4  4  4  4  4  4
++         5  5  6  6  6  5  5  6  6  6  5  6  6  6  5  5  6
++         6  6  5  5  5 11  0  0  0  0  0  0  0  0  0  0  0
%c M  cc GPS ccc cccc cccc cccc cccc ccccc ccccc ccccc ccccc
%c cc cc ccc ccc cccc cccc cccc cccc ccccc ccccc ccccc ccccc
%f  0.0000000  0.000000000  0.00000000000  0.000000000000000
%f  0.0000000  0.000000000  0.00000000000  0.000000000000000
%i    0    0    0    0      0      0      0      0         0
%i    0    0    0    0      0      0      0      0         0
/*                                                          
/*   RSA / INFORMATION & ANALYSIS CENTER (IAC) OF MCC       
/*   ULTRA-RAPID DETERMINATION                              
/* PCV:IGS14_2038 OL/AL:FES2004  NONE     YN ORB:CoN CLK:CoN
*  2019 02 20 13 45  0.00000000
PC02   4334.571345  41964.490250    -70.676908   -331.263833
PC05  21819.004783  36064.360509   -336.103137    -37.165543
PC06 -15455.754051  21101.812225 -32819.808438    430.442987
PC07 -21149.042349  35626.654400   6541.449728    136.874055
PC08  -6013.697063  32001.201981  27030.054185    115.368811
PC09   -774.518274  24738.140572 -33920.490950    547.178350
PC10 -10741.267394  36617.419452  17640.235395   -510.103434
PC11   8932.388445 -12485.012340 -23242.086078    -15.036025
PC12  24212.310035  10488.209939  -9135.491847    435.333859
PC13   3146.613022  38943.746901  16223.480701   -552.425600
PC14  24718.377575 -12690.730241   2341.540835    832.906435
PC16 -13307.709140  21542.228548 -33749.807840   -243.853086
PE01  16029.939458   4289.745425  24507.733051   -546.537613
PE02 -16063.065775  -4225.914389 -24505.693340     48.367252
PE03 -27525.142051  -5930.084594   9110.309002   -135.707192
PE04  27201.856719  -7108.420200   9257.108020   -225.160674
PE05 -11726.330611 -15584.540049  22265.403536    104.260106
PE07 -10865.664647  16082.942729 -22342.870073   -135.247522
PE08 -27097.989958   7333.736972  -9368.973939   6401.022999
PE09  10742.367899 -16044.174419  22442.485732   6522.203257
PE11   1525.208226 -22238.419634 -19480.806979   5719.153717
PE12  16080.564673  -4911.025642 -24346.458433   6210.477911
PE13  -1534.117854  22090.237560  19652.713710    383.229461
PE14  12053.372748 -17047.786562 -24853.216987   6442.090023
PE15 -15824.879574   5296.277297  24463.052231    919.455103
PE18      0.000000      0.000000      0.000000   5515.789259
PE19  26603.454789   7040.680030 -10895.981686     -8.256576
PE21   2471.982528  22167.755773  19455.232918   -520.473087
PE24  12226.842558 -26725.516163  -3432.349665   6223.352493
PE25  -2441.758703 -22191.934830 -19432.492391   1887.594128
PE26  13419.679339  26169.372624   3372.834832   4882.020343
PE27 -12408.191667  26718.129396   2932.773326    525.347249
PE30 -20072.479176  15833.868993 -14942.171949   5091.647477
PE31  19988.689450 -15584.116236  15291.476850    901.790790
PE33  20897.002939  14661.615822 -14961.535032    847.971167
PE36 -13735.351652 -26016.666529  -3284.165996    745.293143
PG01 -14060.925608   5228.044482  21724.583744   -166.773311
PG02  14036.825370  17998.011558 -13127.725079   -144.767667
PG03 -22432.725793  11405.970265   8334.374472    183.778056
PG04  -6251.337352  13899.508646 -21740.910405    118.014934
PG05  15654.665866   5953.584796 -20773.492612      1.108917
PG06   7476.364009  25135.363411  -4082.882449    271.619196
PG07  -7997.438532  19455.853370 -15683.103353     28.943805
PG08 -25694.776276  -5277.684461   4840.091782   -133.464354
PG09 -12412.123053  11276.113561 -20646.790865    455.917855
PG10   5212.917996 -19834.004093  16825.912811    112.926417
PG11 -17701.610359    965.589520  19185.180690   -657.214088
PG12  22856.661039  -8766.108227   9865.441827    266.361130
PG13  23158.869272  12946.205713  -1725.878542    -74.302962
PG14 -13251.047223 -17619.229356  15248.378731    -91.001665
PG15  25893.273040   1809.269722   6270.480605   -326.994254
PG16 -15871.531346  -5671.535026 -20814.893744    -20.465603
PG17   4009.964818  16631.585290  20752.626251     12.549888
PG18 -15942.075477  -5931.217523  19954.227286     27.834447
PG19  13037.435652  17281.240307  15027.785737   -350.418385
PG20  12266.153655 -22008.502877   8069.330427    522.393203
PG21   3965.474716 -22578.426209 -12705.147293   -246.569701
PG22 -21460.905051   5275.781133  14927.842195   -649.243009
PG23 -21986.889578   3636.521956 -14434.886233   -196.601467
PG24  15776.175809   -763.543137  21225.146854    -62.414536
PG25  19911.529685 -17356.988499   -637.922320   -723.107954
PG26  -7865.333429 -13456.840957 -21503.332109    129.574991
PG27 -23222.246276 -12085.551314  -5426.221024    -71.357321
PG28  -7973.873616  19422.352323  16934.457160    764.994061
PG29  16846.081255  -6759.650831 -19408.880878    266.213315
PG30   -937.748328  25749.148930  -6035.833486    -55.900687
PG31  -7766.910174 -24492.822092  -5708.661465     57.313309
PG32  -7577.880286 -16907.037179  19114.315363   -217.429429
PR01  -7810.586690  -9248.996604  22449.780337     39.712633
PR02 -23495.115630    447.643657  10022.081913    355.261334
PR03 -22728.895029   8862.544232  -7491.198260     -8.405858
PR04  -8197.429162  12093.052021 -20901.067865    295.909229
PR05  10028.646045   8256.018357 -21941.362895     22.543097
PR07  22427.962578  -9055.878998   8075.416423    -58.293925
PR08   8926.680003 -12115.311389  20642.753929     18.985121
PR09  11686.975992   -432.228072  22685.316333     55.275241
PR10  12595.875500 -16242.757674  15132.406266     42.615691
PR11   6559.711053 -24569.933224  -2231.511333    -57.336167
PR13 -11042.923647   -901.690829 -22997.268112    -20.381635
PR14 -12611.790144  16261.542576 -15060.291445     36.172228
PR15  -6984.311775  24499.691402   1399.328192    100.069937
PR16   3024.688426  18776.491453  17038.318886     10.998578
PR17 -11707.902539   2571.070908  22527.237012    206.101392
PR18   1621.313898  15394.115755  20275.038048     33.246413
PR19  13735.701183  20338.448424   6956.548862    -61.082048
PR20  18440.213313  12777.471294 -12076.176906   -369.429791
PR21  11301.161967  -2968.763687 -22669.005485    -32.361349
PR22  -3831.133288 -16833.346571 -18821.764965     -5.289141
PR23 -16466.792024 -19382.788658  -2002.498111    210.750071
PR24 -18521.131627 -11342.619833  13377.227025   -177.404979
PR26  18878.499174  13906.227210 -10052.743270     -3.083006
EOF
